KAZSTSAT                
1 43783U 18099AB  26193.04796569  .00000811  00000+0  69756-4 0  9995
2 43783  97.4318 223.8549 0007552 353.3964   6.7159 14.99951134415031
SAUDISAT 5A             
1 43831U 18102A   26193.17807633  .00003444  00000+0  12742-3 0  9990
2 43831  97.3058 254.2791 0010686  53.1920 307.0298 15.28301915419495
SAUDISAT 5B             
1 43833U 18102C   26193.19282729  .00003101  00000+0  11415-3 0  9993
2 43833  97.3168 257.4086 0011451  54.5444 305.6863 15.28545701419617
GAOFEN-10R              
1 44622U 19066A   26193.18519947  .00000626  00000+0  83648-4 0  9991
2 44622  98.0514 146.9477 0006994  60.8687 299.3226 14.83053370366088
CARTOSAT-3              
1 44804U 19081A   26193.18534884  .00002392  00000+0  11630-3 0  9990
2 44804  97.4298 254.6486 0013250  70.6990 289.5677 15.19310139367269
GAOFEN-12 01            
1 44819U 19082A   26193.22224818  .00000196  00000+0  32249-4 0  9995
2 44819  97.8107 198.9415 0001124  52.7810 307.3505 14.80478148357797
CSG-1                   
1 44873U 19092A   26193.16528951  .00000220  00000+0  34146-4 0  9990
2 44873  97.8893  16.4067 0001475  90.0115 270.1267 14.82155328355174
NEMO-HD                 
1 46277U 20061F   26193.19725090  .00007069  00000+0  15132-3 0  9995
2 46277  97.1912 254.9034 0001027  88.0533 272.0834 15.45096548325846
SENTINEL-6A             
1 46984U 20086A   26193.14785848 -.00000066  00000+0 -23530-4 0  9993
2 46984  66.0413  83.2101 0007807 269.9092  90.1028 12.80930066263520
CAS500-1                
1 47932U 21022A   26193.20802274  .00003454  00000+0  16273-3 0  9995
2 47932  97.3874  87.9515 0004875 178.3926 181.7326 15.20161731294561
GAOFEN-12 02            
1 48079U 21026A   26193.16840839  .00000184  00000+0  31133-4 0  9996
2 48079  97.9932 191.2481 0005637 140.1293 220.0334 14.80314756285453
PLEIADES NEO 3          
1 48268U 21034A   26193.17262288  .00000868  00000+0  11693-3 0  9999
2 48268  97.8942 267.5796 0001370  96.4552 263.6817 14.81679216281350
PLEIADES NEO 4          
1 49070U 21073E   26193.20638447 -.00000029  00000+0  29327-5 0  9997
2 49070  97.8940 267.6090 0001322  93.9079 266.2285 14.81673145265075
LANDSAT 9               
1 49260U 21088A   26191.81894687  .00000149  00000+0  43075-4 0  9996
2 49260  98.2341 261.7009 0001512 185.5660 174.5522 14.57104464254446
CSG-2                   
1 51444U 22008A   26193.19900462  .00000243  00000+0  37097-4 0  9990
2 51444  97.8893  16.4346 0001523  86.0827 274.0560 14.82148348240294
GAOFEN-12 03            
1 52912U 22069A   26193.13501311  .00000984  00000+0  13652-3 0  9994
2 52912  97.8253  80.3735 0002517  75.4374 284.7117 14.80075159218300
SWOT                    
1 54754U 22173A   26193.21159384  .00000081  00000+0  56624-4 0  9999
2 54754  77.6107   1.5258 0000280  79.0614 281.0569 14.00172234182650
GAOFEN-12 04            
1 57654U 23123A   26193.22171682  .00000440  00000+0  65337-4 0  9993
2 57654  97.9104 110.8663 0003657  56.5594 303.5967 14.79772056156338
PARS 1                  
1 59065U 24039Q   26193.16921600  .00007540  00000+0  15493-3 0  9999
2 59065  97.4830 174.8869 0010154  36.6894 323.5048 15.46246469132501
RESURS-P 4              
1 59371U 24061A   26193.21077411  .00001842  00000+0  61571-4 0  9990
2 59371  97.2758 140.6770 0003213  93.8883 266.2727 15.32269174127594
LEGION 1                
1 59625U 24081A   26193.16453280  .00002269  00000+0  11875-3 0  9995
2 59625  97.5014 270.7564 0007690 282.2684  77.7688 15.16831846121325
LEGION 2                
1 59626U 24081B   26193.19487376  .00001858  00000+0  97913-4 0  9993
2 59626  97.5014 270.8832 0010067 245.1925 114.8262 15.16810525121336
ALOS-4 (DAICHI-4)       
1 60182U 24123A   26193.25031294  .00000754  00000+0  10776-3 0  9995
2 60182  97.9220 290.0666 0001595  97.5886 262.5507 14.79476665109585
LEGION 3                
1 60452U 24146A   26193.17287910  .00002001  00000+0  11709-3 0  9993
2 60452  45.0011 256.5884 0008488 317.8254  42.1970 15.15644108105819
LEGION 4                
1 60453U 24146B   26192.90904367  .00002882  00000+0  16249-3 0  9997
2 60453  45.0028 349.8695 0008939  92.8389 267.3512 15.15665630104628
SENTINEL-2C             
1 60989U 24157A   26193.13758833  .00000032  00000+0  28739-4 0  9997
2 60989  98.5685 267.5657 0000943 100.4834 259.6455 14.30815122 96557
IONOSFERA-M 1           
1 61735U 24199A   26193.15945697  .00000032  00000+0  34074-4 0  9990
2 61735  98.7140  66.0643 0002193  76.7800 283.3623 14.22758705131251
IONOSFERA-M 2           
1 61736U 24199B   26193.19369250  .00000028  00000+0  32091-4 0  9992
2 61736  98.7139  66.0085 0000390 114.1641 245.9578 14.22762105134386
PRSC-EO1                
1 62725U 25012A   26192.32282968  .00004065  00000+0  20455-3 0  9995
2 62725  97.4221 264.3100 0006630 161.2543 198.8936 15.17752178 81852
BIOMASS                 
1 63772U 25090A   26192.99091656  .00000560  00000+0  10730-3 0  9990
2 63772  98.0751  19.9432 0001361  93.9105 266.2255 14.67535714 64329
GOSAT-GW (IBUKI GW)     
1 64694U 25141A   26193.14456405  .00000239  00000+0  50578-4 0  9994
2 64694  98.0566 130.0562 0001431  85.8988 274.2380 14.67554727 55506
