OBJECT_NAME,OBJECT_ID,EPOCH,MEAN_MOTION,ECCENTRICITY,INCLINATION,RA_OF_ASC_NODE,ARG_OF_PERICENTER,MEAN_ANOMALY,EPHEMERIS_TYPE,CLASSIFICATION_TYPE,NORAD_CAT_ID,ELEMENT_SET_NO,REV_AT_EPOCH,BSTAR,MEAN_MOTION_DOT,MEAN_MOTION_DDOT
KAZSTSAT,2018-099AB,2026-07-12T01:09:04.235616,14.99951134,.0007552,97.4318,223.8549,353.3964,6.7159,0,U,43783,999,41503,.69756E-4,.811E-5,0
SAUDISAT 5A,2018-102A,2026-07-12T04:16:25.794912,15.28301915,.0010686,97.3058,254.2791,53.1920,307.0298,0,U,43831,999,41949,.12742E-3,.3444E-4,0
SAUDISAT 5B,2018-102C,2026-07-12T04:37:40.277856,15.28545701,.0011451,97.3168,257.4086,54.5444,305.6863,0,U,43833,999,41961,.11415E-3,.3101E-4,0
GAOFEN-10R,2019-066A,2026-07-12T04:26:41.234208,14.83053370,.0006994,98.0514,146.9477,60.8687,299.3226,0,U,44622,999,36608,.83648E-4,.626E-5,0
CARTOSAT-3,2019-081A,2026-07-12T04:26:54.139776,15.19310139,.001325,97.4298,254.6486,70.6990,289.5677,0,U,44804,999,36726,.1163E-3,.2392E-4,0
GAOFEN-12 01,2019-082A,2026-07-12T05:20:02.242752,14.80478148,.0001124,97.8107,198.9415,52.7810,307.3505,0,U,44819,999,35779,.32249E-4,.196E-5,0
CSG-1,2019-092A,2026-07-12T03:58:01.013664,14.82155328,.0001475,97.8893,16.4067,90.0115,270.1267,0,U,44873,999,35517,.34146E-4,.22E-5,0
NEMO-HD,2020-061F,2026-07-12T04:44:02.477760,15.45096548,.0001027,97.1912,254.9034,88.0533,272.0834,0,U,46277,999,32584,.15132E-3,.7069E-4,0
SENTINEL-6A,2020-086A,2026-07-12T03:32:54.972672,12.80930066,.0007807,66.0413,83.2101,269.9092,90.1028,0,U,46984,999,26352,-.2353E-4,-.66E-6,0
CAS500-1,2021-022A,2026-07-12T04:59:33.164736,15.20161731,.0004875,97.3874,87.9515,178.3926,181.7326,0,U,47932,999,29456,.16273E-3,.3454E-4,0
GAOFEN-12 02,2021-026A,2026-07-12T04:02:30.484896,14.80314756,.0005637,97.9932,191.2481,140.1293,220.0334,0,U,48079,999,28545,.31133E-4,.184E-5,0
PLEIADES NEO 3,2021-034A,2026-07-12T04:08:34.616832,14.81679216,.000137,97.8942,267.5796,96.4552,263.6817,0,U,48268,999,28135,.11693E-3,.868E-5,0
PLEIADES NEO 4,2021-073E,2026-07-12T04:57:11.618208,14.81673145,.0001322,97.8940,267.6090,93.9079,266.2285,0,U,49070,999,26507,.29327E-5,-.29E-6,0
LANDSAT 9,2021-088A,2026-07-10T19:39:17.009568,14.57104464,.00015127,98.2341,261.7009,185.5660,174.5522,0,U,49260,999,25444,.43074943E-4,.149E-5,0
CSG-2,2022-008A,2026-07-12T04:46:33.999168,14.82148348,.0001523,97.8893,16.4346,86.0827,274.0560,0,U,51444,999,24029,.37097E-4,.243E-5,0
GAOFEN-12 03,2022-069A,2026-07-12T03:14:25.132704,14.80075159,.0002517,97.8253,80.3735,75.4374,284.7117,0,U,52912,999,21830,.13652E-3,.984E-5,0
SWOT,2022-173A,2026-07-12T05:04:41.707776,14.00172234,.000028,77.6107,1.5258,79.0614,281.0569,0,U,54754,999,18265,.56624E-4,.81E-6,0
GAOFEN-12 04,2023-123A,2026-07-12T05:19:16.333248,14.79772056,.0003657,97.9104,110.8663,56.5594,303.5967,0,U,57654,999,15633,.65337E-4,.44E-5,0
PARS 1,2024-039Q,2026-07-12T04:03:40.262400,15.46246469,.0010154,97.4830,174.8869,36.6894,323.5048,0,U,59065,999,13250,.15493E-3,.754E-4,0
RESURS-P 4,2024-061A,2026-07-12T05:03:30.883104,15.32269174,.0003213,97.2758,140.6770,93.8883,266.2727,0,U,59371,999,12759,.61571E-4,.1842E-4,0
LEGION 1,2024-081A,2026-07-12T03:56:55.633920,15.16831846,.000769,97.5014,270.7564,282.2684,77.7688,0,U,59625,999,12132,.11875E-3,.2269E-4,0
LEGION 2,2024-081B,2026-07-12T04:40:37.092864,15.16810525,.0010067,97.5014,270.8832,245.1925,114.8262,0,U,59626,999,12133,.97913E-4,.1858E-4,0
ALOS-4 (DAICHI-4),2024-123A,2026-07-12T06:00:27.038016,14.79476665,.0001595,97.9220,290.0666,97.5886,262.5507,0,U,60182,999,10958,.10776E-3,.754E-5,0
LEGION 3,2024-146A,2026-07-12T04:08:56.754240,15.15644108,.0008488,45.0011,256.5884,317.8254,42.1970,0,U,60452,999,10581,.11709E-3,.2001E-4,0
LEGION 4,2024-146B,2026-07-11T21:49:01.373088,15.15665630,.0008939,45.0028,349.8695,92.8389,267.3512,0,U,60453,999,10462,.16249E-3,.2882E-4,0
SENTINEL-2C,2024-157A,2026-07-12T03:18:07.631712,14.30815122,.0000943,98.5685,267.5657,100.4834,259.6455,0,U,60989,999,9655,.28739E-4,.32E-6,0
IONOSFERA-M 1,2024-199A,2026-07-12T03:49:37.082208,14.22758705,.0002193,98.7140,66.0643,76.7800,283.3623,0,U,61735,999,13125,.34074E-4,.32E-6,0
IONOSFERA-M 2,2024-199B,2026-07-12T04:38:55.032000,14.22762105,.000039,98.7139,66.0085,114.1641,245.9578,0,U,61736,999,13438,.32091E-4,.28E-6,0
PRSC-EO1,2025-012A,2026-07-11T07:44:52.484352,15.17752178,.00066307,97.4221,264.3100,161.2543,198.8936,0,U,62725,999,8185,.20455326E-3,.4065E-4,0
BIOMASS,2025-090A,2026-07-11T23:46:55.190784,14.67535714,.0001361,98.0751,19.9432,93.9105,266.2255,0,U,63772,999,6432,.1073E-3,.56E-5,0
GOSAT-GW (IBUKI GW),2025-141A,2026-07-12T03:28:10.333920,14.67554727,.0001431,98.0566,130.0562,85.8988,274.2380,0,U,64694,999,5550,.50578E-4,.239E-5,0
